[{"OBJECT_NAME":"STARLINK-5277","OBJECT_ID":"2023-010A","EPOCH":"2026-03-09T22:55:25.480992","MEAN_MOTION":14.98334733,"ECCENTRICITY":0.000306,"INCLINATION":70.0003,"RA_OF_ASC_NODE":43.87,"ARG_OF_PERICENTER":270.0377,"MEAN_ANOMALY":90.0431,"EPHEMERIS_TYPE":0,"CLASSIFICATION_TYPE":"U","NORAD_CAT_ID":55269,"ELEMENT_SET_NO":999,"REV_AT_EPOCH":17310,"BSTAR":3.0717251e-5,"MEAN_MOTION_DOT":2.74e-6,"MEAN_MOTION_DDOT":0},{"OBJECT_NAME":"UNISAT-2","OBJECT_ID":"2002-058D","EPOCH":"2026-03-09T21:26:58.912224","MEAN_MOTION":14.84095062,"ECCENTRICITY":0.00633056,"INCLINATION":64.5535,"RA_OF_ASC_NODE":329.2093,"ARG_OF_PERICENTER":269.3781,"MEAN_ANOMALY":90.0072,"EPHEMERIS_TYPE":0,"CLASSIFICATION_TYPE":"U","NORAD_CAT_ID":27608,"ELEMENT_SET_NO":999,"REV_AT_EPOCH":25205,"BSTAR":0.00017704747,"MEAN_MOTION_DOT":1.378e-5,"MEAN_MOTION_DDOT":0}]
